2021-022F               
1 47937U 21022F   26068.98445793  .00011656  00000+0  38691-3 0  9996
2 47937  97.3982 329.8375 0012088  85.9268 274.3355 15.31317672274529
TOMORROW-S2             
1 60485U 24149T   26068.75188364  .00008133  00000+0  27683-3 0  9990
2 60485  97.3857 150.0385 0001648 234.3331 125.7757 15.30674935 86869
